Telesat #10000063
1 99999U 24029BR  24282.57172454  .00001103  00000-0  33518-4 0  9998
2 99999  72.9000 139.1651 0003481 299.7327  90.3331 12.83389493  1772
Telesat #10000064
1 99999U 24029BR  24282.57172454  .00001103  00000-0  33518-4 0  9998
2 99999  72.9000 139.1651 0003481 299.7327 120.3331 12.83389493  1773
Telesat #10000065
1 99999U 24029BR  24282.57172454  .00001103  00000-0  33518-4 0  9998
2 99999  72.9000 139.1651 0003481 299.7327 150.3331 12.83389493  1773
Telesat #10000066
1 99999U 24029BR  24282.57172454  .00001103  00000-0  33518-4 0  9998
2 99999  72.9000 139.1651 0003481 299.7327 180.3331 12.83389493  1773
Telesat #10000067
1 99999U 24029BR  24282.57172454  .00001103  00000-0  33518-4 0  9998
2 99999  72.9000 139.1651 0003481 299.7327 210.3331 12.83389493  1773
Telesat #10000068
1 99999U 24029BR  24282.57172454  .00001103  00000-0  33518-4 0  9998
2 99999  72.9000 139.1651 0003481 299.7327 240.3331 12.83389493  1773
Telesat #10000069
1 99999U 24029BR  24282.57172454  .00001103  00000-0  33518-4 0  9998
2 99999  72.9000 139.1651 0003481 299.7327 270.3331 12.83389493  1773
Telesat #10000070
1 99999U 24029BR  24282.57172454  .00001103  00000-0  33518-4 0  9998
2 99999  72.9000 139.1651 0003481 299.7327 300.3331 12.83389493  1773
Telesat #10000071
1 99999U 24029BR  24282.57172454  .00001103  00000-0  33518-4 0  9998
2 99999  72.9000 139.1651 0003481 299.7327 330.3331 12.83389493  1773
Telesat #10000072
1 99999U 24029BR  24282.57172454  .00001103  00000-0  33518-4 0  9998
2 99999  72.9000 166.8574 0003481 299.7327   0.3331 12.83389493  1771
Telesat #10000073
1 99999U 24029BR  24282.57172454  .00001103  00000-0  33518-4 0  9998
2 99999  72.9000 166.8574 0003481 299.7327  30.3331 12.83389493  1772
Telesat #10000074
1 99999U 24029BR  24282.57172454  .00001103  00000-0  33518-4 0  9998
2 99999  72.9000 166.8574 0003481 299.7327  60.3331 12.83389493  1772
Telesat #10000075
1 99999U 24029BR  24282.57172454  .00001103  00000-0  33518-4 0  9998
2 99999  72.9000 166.8574 0003481 299.7327  90.3331 12.83389493  1772
Telesat #10000076
1 99999U 24029BR  24282.57172454  .00001103  00000-0  33518-4 0  9998
2 99999  72.9000 166.8574 0003481 299.7327 120.3331 12.83389493  1773
Telesat #10000077
1 99999U 24029BR  24282.57172454  .00001103  00000-0  33518-4 0  9998
2 99999  72.9000 166.8574 0003481 299.7327 150.3331 12.83389493  1773
Telesat #10000078
1 99999U 24029BR  24282.57172454  .00001103  00000-0  33518-4 0  9998
2 99999  72.9000 166.8574 0003481 299.7327 180.3331 12.83389493  1773
Telesat #10000079
1 99999U 24029BR  24282.57172454  .00001103  00000-0  33518-4 0  9998
2 99999  72.9000 166.8574 0003481 299.7327 210.3331 12.83389493  1773
Telesat #10000080
1 99999U 24029BR  24282.57172454  .00001103  00000-0  33518-4 0  9998
2 99999  72.9000 166.8574 0003481 299.7327 240.3331 12.83389493  1773
Telesat #10000081
1 99999U 24029BR  24282.57172454  .00001103  00000-0  33518-4 0  9998
2 99999  72.9000 166.8574 0003481 299.7327 270.3331 12.83389493  1773
Telesat #10000082
1 99999U 24029BR  24282.57172454  .00001103  00000-0  33518-4 0  9998
2 99999  72.9000 166.8574 0003481 299.7327 300.3331 12.83389493  1773
Telesat #10000083
1 99999U 24029BR  24282.57172454  .00001103  00000-0  33518-4 0  9998
2 99999  72.9000 166.8574 0003481 299.7327 330.3331 12.83389493  1773
Telesat #10000084
1 99999U 24029BR  24282.57172454  .00001103  00000-0  33518-4 0  9998
2 99999  72.9000 194.5498 0003481 299.7327   0.3331 12.83389493  1771
Telesat #10000085
1 99999U 24029BR  24282.57172454  .00001103  00000-0  33518-4 0  9998
2 99999  72.9000 194.5498 0003481 299.7327  30.3331 12.83389493  1772
Telesat #10000086
1 99999U 24029BR  24282.57172454  .00001103  00000-0  33518-4 0  9998
2 99999  72.9000 194.5498 0003481 299.7327  60.3331 12.83389493  1772
Telesat #10000087
1 99999U 24029BR  24282.57172454  .00001103  00000-0  33518-4 0  9998
2 99999  72.9000 194.5498 0003481 299.7327  90.3331 12.83389493  1772
Telesat #10000088
1 99999U 24029BR  24282.57172454  .00001103  00000-0  33518-4 0  9998
2 99999  72.9000 194.5498 0003481 299.7327 120.3331 12.83389493  1773
Telesat #10000089
1 99999U 24029BR  24282.57172454  .00001103  00000-0  33518-4 0  9998
2 99999  72.9000 194.5498 0003481 299.7327 150.3331 12.83389493  1773
Telesat #10000090
1 99999U 24029BR  24282.57172454  .00001103  00000-0  33518-4 0  9998
2 99999  72.9000 194.5498 0003481 299.7327 180.3331 12.83389493  1773
Telesat #10000091
1 99999U 24029BR  24282.57172454  .00001103  00000-0  33518-4 0  9998
2 99999  72.9000 194.5498 0003481 299.7327 210.3331 12.83389493  1773
Telesat #10000092
1 99999U 24029BR  24282.57172454  .00001103  00000-0  33518-4 0  9998
2 99999  72.9000 194.5498 0003481 299.7327 240.3331 12.83389493  1773
Telesat #10000093
1 99999U 24029BR  24282.57172454  .00001103  00000-0  33518-4 0  9998
2 99999  72.9000 194.5498 0003481 299.7327 270.3331 12.83389493  1773
Telesat #10000094
1 99999U 24029BR  24282.57172454  .00001103  00000-0  33518-4 0  9998
2 99999  72.9000 194.5498 0003481 299.7327 300.3331 12.83389493  1773
Telesat #10000095
1 99999U 24029BR  24282.57172454  .00001103  00000-0  33518-4 0  9998
2 99999  72.9000 194.5498 0003481 299.7327 330.3331 12.83389493  1773
Telesat #10000096
1 99999U 24029BR  24282.57172454  .00001103  00000-0  33518-4 0  9998
2 99999  72.9000 222.2421 0003481 299.7327   0.3331 12.83389493  1771
Telesat #10000097
1 99999U 24029BR  24282.57172454  .00001103  00000-0  33518-4 0  9998
2 99999  72.9000 222.2421 0003481 299.7327  30.3331 12.83389493  1772
Telesat #10000098
1 99999U 24029BR  24282.57172454  .00001103  00000-0  33518-4 0  9998
2 99999  72.9000 222.2421 0003481 299.7327  60.3331 12.83389493  1772
Telesat #10000099
1 99999U 24029BR  24282.57172454  .00001103  00000-0  33518-4 0  9998
2 99999  72.9000 222.2421 0003481 299.7327  90.3331 12.83389493  1772
Telesat #10000100
1 99999U 24029BR  24282.57172454  .00001103  00000-0  33518-4 0  9998
2 99999  72.9000 222.2421 0003481 299.7327 120.3331 12.83389493  1773
Telesat #10000101
1 99999U 24029BR  24282.57172454  .00001103  00000-0  33518-4 0  9998
2 99999  72.9000 222.2421 0003481 299.7327 150.3331 12.83389493  1773
Telesat #10000102
1 99999U 24029BR  24282.57172454  .00001103  00000-0  33518-4 0  9998
2 99999  72.9000 222.2421 0003481 299.7327 180.3331 12.83389493  1773
Telesat #10000103
1 99999U 24029BR  24282.57172454  .00001103  00000-0  33518-4 0  9998
2 99999  72.9000 222.2421 0003481 299.7327 210.3331 12.83389493  1773
Telesat #10000104
1 99999U 24029BR  24282.57172454  .00001103  00000-0  33518-4 0  9998
2 99999  72.9000 222.2421 0003481 299.7327 240.3331 12.83389493  1773
Telesat #10000105
1 99999U 24029BR  24282.57172454  .00001103  00000-0  33518-4 0  9998
2 99999  72.9000 222.2421 0003481 299.7327 270.3331 12.83389493  1773
Telesat #10000106
1 99999U 24029BR  24282.57172454  .00001103  00000-0  33518-4 0  9998
2 99999  72.9000 222.2421 0003481 299.7327 300.3331 12.83389493  1773
Telesat #10000107
1 99999U 24029BR  24282.57172454  .00001103  00000-0  33518-4 0  9998
2 99999  72.9000 222.2421 0003481 299.7327 330.3331 12.83389493  1773
Telesat #10000108
1 99999U 24029BR  24282.57172454  .00001103  00000-0  33518-4 0  9998
2 99999  72.9000 249.9344 0003481 299.7327   0.3331 12.83389493  1771
Telesat #10000109
1 99999U 24029BR  24282.57172454  .00001103  00000-0  33518-4 0  9998
2 99999  72.9000 249.9344 0003481 299.7327  30.3331 12.83389493  1772
Telesat #10000110
1 99999U 24029BR  24282.57172454  .00001103  00000-0  33518-4 0  9998
2 99999  72.9000 249.9344 0003481 299.7327  60.3331 12.83389493  1772
Telesat #10000111
1 99999U 24029BR  24282.57172454  .00001103  00000-0  33518-4 0  9998
2 99999  72.9000 249.9344 0003481 299.7327  90.3331 12.83389493  1772
Telesat #10000112
1 99999U 24029BR  24282.57172454  .00001103  00000-0  33518-4 0  9998
2 99999  72.9000 249.9344 0003481 299.7327 120.3331 12.83389493  1773
Telesat #10000113
1 99999U 24029BR  24282.57172454  .00001103  00000-0  33518-4 0  9998
2 99999  72.9000 249.9344 0003481 299.7327 150.3331 12.83389493  1773
Telesat #10000114
1 99999U 24029BR  24282.57172454  .00001103  00000-0  33518-4 0  9998
2 99999  72.9000 249.9344 0003481 299.7327 180.3331 12.83389493  1773
Telesat #10000115
1 99999U 24029BR  24282.57172454  .00001103  00000-0  33518-4 0  9998
2 99999  72.9000 249.9344 0003481 299.7327 210.3331 12.83389493  1773
Telesat #10000116
1 99999U 24029BR  24282.57172454  .00001103  00000-0  33518-4 0  9998
2 99999  72.9000 249.9344 0003481 299.7327 240.3331 12.83389493  1773
Telesat #10000117
1 99999U 24029BR  24282.57172454  .00001103  00000-0  33518-4 0  9998
2 99999  72.9000 249.9344 0003481 299.7327 270.3331 12.83389493  1773
Telesat #10000118
1 99999U 24029BR  24282.57172454  .00001103  00000-0  33518-4 0  9998
2 99999  72.9000 249.9344 0003481 299.7327 300.3331 12.83389493  1773
Telesat #10000119
1 99999U 24029BR  24282.57172454  .00001103  00000-0  33518-4 0  9998
2 99999  72.9000 249.9344 0003481 299.7327 330.3331 12.83389493  1773
Telesat #10000120
1 99999U 24029BR  24282.57172454  .00001103  00000-0  33518-4 0  9998
2 99999  72.9000 277.6267 0003481 299.7327   0.3331 12.83389493  1771
Telesat #10000121
1 99999U 24029BR  24282.57172454  .00001103  00000-0  33518-4 0  9998
2 99999  72.9000 277.6267 0003481 299.7327  30.3331 12.83389493  1772
Telesat #10000122
1 99999U 24029BR  24282.57172454  .00001103  00000-0  33518-4 0  9998
2 99999  72.9000 277.6267 0003481 299.7327  60.3331 12.83389493  1772
Telesat #10000123
1 99999U 24029BR  24282.57172454  .00001103  00000-0  33518-4 0  9998
2 99999  72.9000 277.6267 0003481 299.7327  90.3331 12.83389493  1772
Telesat #10000124
1 99999U 24029BR  24282.57172454  .00001103  00000-0  33518-4 0  9998
2 99999  72.9000 277.6267 0003481 299.7327 120.3331 12.83389493  1773
Telesat #10000125
1 99999U 24029BR  24282.57172454  .00001103  00000-0  33518-4 0  9998
2 99999  72.9000 277.6267 0003481 299.7327 150.3331 12.83389493  1773
